ONEWEB-0531             
1 54146U 22138AK  24146.21000634 -.00000740  00000+0 -18524-2 0  9993
2 54146  87.9225  64.2502 0002779  56.2551 303.8846 13.20763516 80782
ONEWEB-0535             
1 54147U 22138AL  24145.91527397 -.00000032  00000+0 -11223-3 0  9994
2 54147  87.9137  94.8689 0001985  74.1750 285.9601 13.19727780 78358
ONEWEB-0536             
1 54148U 22138AM  24146.19736573 -.00002339  00000+0 -57859-2 0  9990
2 54148  87.9204  64.3025 0002456  51.7566 308.3788 13.20762384 80776
ONEWEB-0527             
1 54642U 22166A   24145.91640741  .00000017  00000+0  93299-5 0  9990
2 54642  87.9311  33.9397 0001977  80.0632 280.0725 13.21823918 72022
ONEWEB-0528             
1 54643U 22166B   24145.92271292 -.00000401  00000+0 -10024-2 0  9994
2 54643  87.9314  33.9243 0002031  85.7119 274.4247 13.21825371 72032
ONEWEB-0539             
1 54644U 22166C   24145.95898284  .00000912  00000+0  21766-2 0  9994
2 54644  87.9309  33.9200 0001477  78.8467 281.2833 13.21832539 72033
ONEWEB-0540             
1 54645U 22166D   24145.95347508  .00001443  00000+0  34633-2 0  9990
2 54645  87.9319  33.9389 0000562  65.1888 294.9305 13.21794468 72025
ONEWEB-0542             
1 54646U 22166E   24146.19554210 -.00000952  00000+0 -23379-2 0  9999
2 54646  87.9321  33.8721 0001428  84.5389 275.5907 13.21823301 72528
